[{"OBJECT_NAME":"STARLINK-32570","OBJECT_ID":"2024-222Z","EPOCH":"2026-03-09T12:35:32.374464","MEAN_MOTION":15.27615801,"ECCENTRICITY":0.00016527,"INCLINATION":42.9984,"RA_OF_ASC_NODE":137.1204,"ARG_OF_PERICENTER":277.9857,"MEAN_ANOMALY":82.0807,"EPHEMERIS_TYPE":0,"CLASSIFICATION_TYPE":"U","NORAD_CAT_ID":62137,"ELEMENT_SET_NO":999,"REV_AT_EPOCH":7287,"BSTAR":0.0012306627,"MEAN_MOTION_DOT":0.00033796,"MEAN_MOTION_DDOT":0},{"OBJECT_NAME":"BANDWAGON-2 OBJECT D","OBJECT_ID":"2024-247D","EPOCH":"2026-03-09T12:32:33.670752","MEAN_MOTION":15.29076102,"ECCENTRICITY":0.00034883,"INCLINATION":44.9954,"RA_OF_ASC_NODE":115.671,"ARG_OF_PERICENTER":351.1453,"MEAN_ANOMALY":8.9368,"EPHEMERIS_TYPE":0,"CLASSIFICATION_TYPE":"U","NORAD_CAT_ID":62380,"ELEMENT_SET_NO":999,"REV_AT_EPOCH":6773,"BSTAR":0.00040119131,"MEAN_MOTION_DOT":0.00011259,"MEAN_MOTION_DDOT":0}]
